[{"OBJECT_NAME":"NUSAT-35 (WILLIAMINA)","OBJECT_ID":"2023-001AR","EPOCH":"2026-03-09T22:28:40.425600","MEAN_MOTION":15.3245616,"ECCENTRICITY":0.00136635,"INCLINATION":97.1993,"RA_OF_ASC_NODE":124.278,"ARG_OF_PERICENTER":97.0313,"MEAN_ANOMALY":263.2484,"EPHEMERIS_TYPE":0,"CLASSIFICATION_TYPE":"U","NORAD_CAT_ID":55048,"ELEMENT_SET_NO":999,"REV_AT_EPOCH":17719,"BSTAR":0.00053479647,"MEAN_MOTION_DOT":0.0001675,"MEAN_MOTION_DDOT":0},{"OBJECT_NAME":"STARLINK-35626","OBJECT_ID":"2025-244AD","EPOCH":"2026-03-09T17:52:42.866112","MEAN_MOTION":15.30209034,"ECCENTRICITY":8.218e-5,"INCLINATION":53.1561,"RA_OF_ASC_NODE":229.9556,"ARG_OF_PERICENTER":75.7174,"MEAN_ANOMALY":284.3918,"EPHEMERIS_TYPE":0,"CLASSIFICATION_TYPE":"U","NORAD_CAT_ID":66233,"ELEMENT_SET_NO":999,"REV_AT_EPOCH":2166,"BSTAR":0.00089800803,"MEAN_MOTION_DOT":0.00026339,"MEAN_MOTION_DDOT":0}]
